NORAD_CAT_ID,OBJECT_NAME,OBJECT_TYPE,EPOCH,MEAN_MOTION,ECCENTRICITY,INCLINATION,RA_OF_ASC_NODE,ARG_OF_PERICENTER,MEAN_ANOMALY,BSTAR,MEAN_MOTION_DOT,MEAN_MOTION_DDOT,TLE_LINE0,TLE_LINE1,TLE_LINE2,SEMIMAJOR_AXIS,PERIOD,APOGEE,PERIGEE,DECAYED
49733.0,STARLINK-3252,PAYLOAD,2022-04-05 16:00:00,15.08876173,0.000222,53.2125,116.7142,33.1805,236.1789,-0.0044198,-0.00070018,0.0,0 STARLINK-3252,1 49733U 21115K   22095.66667824 -.00070018  00000-0 -44198-2 0  9995,2 49733  53.2125 116.7142 0002220  33.1805 236.1789 15.08876173 20019,6917.77,95.435,541.1709999999998,538.099,0.0
49733.0,STARLINK-3252,PAYLOAD,2022-04-05 22:00:00,15.08812057,0.0002034,53.2126,115.5906,34.8433,153.2362,0.0023425,0.00037162,0.0,0 STARLINK-3252,1 49733U 21115K   22095.91667824  .00037162  00000-0  23425-2 0  9994,2 49733  53.2126 115.5906 0002034  34.8433 153.2362 15.08812057  3617,6917.965999999999,95.439,541.238,538.424,0.0
49733.0,STARLINK-3252,PAYLOAD,2022-04-06 06:00:02,15.08847433,0.0002165,53.2129,114.0954,35.0287,164.6935,-0.0011766,-0.00018969,0.0,0 STARLINK-3252,1 49733U 21115K   22096.25002315 -.00018969  00000-0 -11766-2 0  9991,2 49733  53.2129 114.0954 0002165  35.0287 164.6935 15.08847433 20103,6917.858,95.437,541.22,538.225,0.0
49733.0,STARLINK-3252,PAYLOAD,2022-04-06 14:00:01,15.08840621,0.000227,53.2125,112.5994,33.2651,177.9844,0.00051621,7.937e-05,0.0,0 STARLINK-3252,1 49733U 21115K   22096.58334491  .00007937  00000-0  51621-3 0  9996,2 49733  53.2125 112.5994 0002270  33.2651 177.9844 15.08840621  3602,6917.878000000002,95.438,541.314,538.173,0.0
49733.0,STARLINK-3252,PAYLOAD,2022-04-06 22:00:00,15.08825329,0.0002064,53.2125,111.1012,37.6047,185.2524,0.0028825,0.00045868,0.0,0 STARLINK-3252,1 49733U 21115K   22096.91667824  .00045868  00000-0  28825-2 0  9996,2 49733  53.2125 111.1012 0002064  37.6047 185.2524 15.08825329 20206,6917.925,95.438,541.2180000000002,538.362,0.0
49733.0,STARLINK-3252,PAYLOAD,2022-04-07 14:00:01,15.08854273,0.0002242,53.2123,108.1099,33.5926,212.4705,-0.0022381,-0.00035747,0.0,0 STARLINK-3252,1 49733U 21115K   22097.58334491 -.00035747  00000-0 -22381-2 0  9999,2 49733  53.2123 108.1099 0002242  33.5926 212.4705 15.08854273  3603,6917.837,95.437,541.253,538.151,0.0
49733.0,STARLINK-3252,PAYLOAD,2022-04-07 20:00:01,15.08818153,0.0002048,53.2124,106.9862,36.0261,128.7488,0.0020759,0.00032885,0.0,0 STARLINK-3252,1 49733U 21115K   22097.83334491  .00032885  00000-0  20759-2 0  9992,2 49733  53.2124 106.9862 0002048  36.0261 128.7488 15.08818153 20346,6917.946999999999,95.439,541.229,538.395,0.0
49733.0,STARLINK-3252,PAYLOAD,2022-04-07 22:00:00,15.08815738,0.0002044,53.2124,106.6118,37.7177,219.9553,0.0030385,0.0004837,0.0,0 STARLINK-3252,1 49733U 21115K   22097.91667824  .00048370  00000-0  30385-2 0  9992,2 49733  53.2124 106.6118 0002044  37.7177 219.9553 15.08815738  3564,6917.955,95.439,541.234,538.406,0.0
49733.0,STARLINK-3252,PAYLOAD,2022-04-08 14:00:03,15.08871478,0.0002241,53.2122,103.6204,33.8771,247.1062,-0.0029812,-0.00047464,0.0,0 STARLINK-3252,1 49733U 21115K   22098.58336806 -.00047464  00000-0 -29812-2 0  9997,2 49733  53.2122 103.6204 0002241  33.8771 247.1062 15.08871478 20459,6917.784000000002,95.436,541.1990000000002,538.099,0.0
49733.0,STARLINK-3252,PAYLOAD,2022-04-08 22:00:00,15.08812736,0.0002071,53.2124,102.1224,37.3031,255.1748,0.0026655,0.00042358,0.0,0 STARLINK-3252,1 49733U 21115K   22098.91667824  .00042358  00000-0  26655-2 0  9998,2 49733  53.2124 102.1224 0002071  37.3031 255.1748 15.08812736  3572,6917.964,95.439,541.261,538.396,0.0
49733.0,STARLINK-3252,PAYLOAD,2022-04-09 06:00:00,15.08842993,0.0002252,53.2126,100.6275,35.5353,268.5237,-0.00083746,-0.00013593,0.0,0 STARLINK-3252,1 49733U 21115K   22099.25001157 -.00013593  00000-0 -83746-3 0  9993,2 49733  53.2126 100.6275 0002252  35.5353 268.5237 15.08842993 20557,6917.871,95.437,541.294,538.178,0.0
49733.0,STARLINK-3252,PAYLOAD,2022-04-09 14:00:01,15.08855731,0.0002262,53.2124,99.131,32.3353,283.3079,-0.0038916,-0.00061722,0.0,0 STARLINK-3252,1 49733U 21115K   22099.58334491 -.00061722  00000-0 -38916-2 0  9994,2 49733  53.2124  99.1310 0002262  32.3353 283.3079 15.08855731  3603,6917.831999999999,95.437,541.262,538.132,0.0
49733.0,STARLINK-3252,PAYLOAD,2022-04-09 22:00:00,15.08801072,0.0002102,53.2127,97.6329,36.7026,290.5392,0.0031145,0.00049576,0.0,0 STARLINK-3252,1 49733U 21115K   22099.91667824  .00049576  00000-0  31145-2 0  9998,2 49733  53.2127  97.6329 0002102  36.7026 290.5392 15.08801072  3604,6917.999,95.44,541.319,538.41,0.0
49733.0,STARLINK-3252,PAYLOAD,2022-04-10 06:00:02,15.08834589,0.000232,53.2129,96.1381,35.1114,303.7658,-0.0006092,-9.97e-05,0.0,0 STARLINK-3252,1 49733U 21115K   22100.25002315 -.00009970  00000-0 -60920-3 0  9996,2 49733  53.2129  96.1381 0002320  35.1114 303.7658 15.08834589 20702,6917.897,95.438,541.367,538.1569999999998,0.0
49733.0,STARLINK-3252,PAYLOAD,2022-04-10 14:00:01,15.08852177,0.0002334,53.2128,94.6414,33.5623,316.8333,-0.001314,-0.00021148,0.0,0 STARLINK-3252,1 49733U 21115K   22100.58334491 -.00021148  00000-0 -13140-2 0  9997,2 49733  53.2128  94.6414 0002334  33.5623 316.8333 15.08852177  3599,6917.843000000003,95.437,541.323,538.094,0.0
49733.0,STARLINK-3252,PAYLOAD,2022-04-10 22:00:00,15.08864683,0.0002177,53.2151,93.1329,37.6955,324.3161,-0.0071473,-0.00112349,0.0,0 STARLINK-3252,1 49733U 21115K   22100.91667824 -.00112349  00000-0 -71473-2 0  9990,2 49733  53.2151  93.1329 0002177  37.6955 324.3161 15.08864683  3602,6917.805,95.436,541.1759999999998,538.164,0.0
49733.0,STARLINK-3252,PAYLOAD,2022-04-11 06:00:00,15.08832894,0.0002348,53.2133,91.6487,34.647,338.9496,-0.00044594,-7.377e-05,0.0,0 STARLINK-3252,1 49733U 21115K   22101.25001157 -.00007377  00000-0 -44594-3 0  9998,2 49733  53.2133  91.6487 0002348  34.6470 338.9496 15.08832894 20856,6917.901999999999,95.438,541.391,538.143,0.0
49733.0,STARLINK-3252,PAYLOAD,2022-04-11 14:00:01,15.088509599999998,0.0002331,53.2132,90.1517,33.4489,351.7246,-0.0014975,-0.0002405,0.0,0 STARLINK-3252,1 49733U 21115K   22101.58334491 -.00024050  00000-0 -14975-2 0  9990,2 49733  53.2132  90.1517 0002331  33.4489 351.7246 15.08850960  3617,6917.847,95.437,541.3240000000002,538.099,0.0
49733.0,STARLINK-3252,PAYLOAD,2022-04-11 22:00:00,15.08835879,0.0002153,53.2135,88.6539,37.2473,359.5258,-0.00021319,-3.679e-05,0.0,0 STARLINK-3252,1 49733U 21115K   22101.91667824 -.00003679  00000-0 -21319-3 0  9991,2 49733  53.2135  88.6539 0002153  37.2473 359.5258 15.08835879  3591,6917.893,95.438,541.247,538.269,0.0
49733.0,STARLINK-3252,PAYLOAD,2022-04-12 14:00:01,15.08842233,0.0002304,53.2133,85.662,33.6773,26.2535,-0.0017476,-0.00027997,0.0,0 STARLINK-3252,1 49733U 21115K   22102.58334491 -.00027997  00000-0 -17476-2 0  9993,2 49733  53.2133  85.6620 0002304  33.6773  26.2535 15.08842233 21057,6917.874,95.437,541.332,538.145,0.0
49733.0,STARLINK-3252,PAYLOAD,2022-04-12 22:00:00,15.08822212,0.000215,53.2136,84.1643,38.3207,33.1973,0.0022237,0.00035263,0.0,0 STARLINK-3252,1 49733U 21115K   22102.91667824  .00035263  00000-0  22237-2 0  9993,2 49733  53.2136  84.1643 0002150  38.3207  33.1973 15.08822212  3577,6917.935,95.439,541.2869999999998,538.312,0.0
49733.0,STARLINK-3252,PAYLOAD,2022-04-13 04:00:00,15.08848376,0.0002298,53.2136,83.0434,36.1352,314.0717,-0.00118,-0.00019024,0.0,0 STARLINK-3252,1 49733U 21115K   22103.16667824 -.00019024  00000-0 -11800-2 0  9994,2 49733  53.2136  83.0434 0002298  36.1352 314.0717 15.08848376 21142,6917.855,95.437,541.31,538.13,0.0
49733.0,STARLINK-3252,PAYLOAD,2022-04-13 14:00:03,15.08861416,0.0002292,53.2132,81.1722,36.2523,58.5738,-0.0016617,-0.00026653,0.0,0 STARLINK-3252,1 49733U 21115K   22103.58336806 -.00026653  00000-0 -16617-2 0  9990,2 49733  53.2132  81.1722 0002292  36.2523  58.5738 15.08861416  3628,6917.815,95.436,541.265,538.094,0.0
49733.0,STARLINK-3252,PAYLOAD,2022-04-13 22:00:00,15.08854395,0.0002145,53.2135,79.6747,40.4174,65.8937,0.00082638,0.00012894,0.0,0 STARLINK-3252,1 49733U 21115K   22103.91667824  .00012894  00000-0  82638-3 0  9991,2 49733  53.2135  79.6747 0002145  40.4174  65.8937 15.08854395 21255,6917.8359999999975,95.437,541.185,538.2180000000002,0.0
49733.0,STARLINK-3252,PAYLOAD,2022-04-14 14:00:01,15.08850285,0.0002237,53.213,76.6825,36.819,92.6965,-0.0018712,-0.00029955,0.0,0 STARLINK-3252,1 49733U 21115K   22104.58334491 -.00029955  00000-0 -18712-2 0  9995,2 49733  53.2130  76.6825 0002237  36.8190  92.6965 15.08850285 21357,6917.849,95.437,541.261,538.1659999999998,0.0
49733.0,STARLINK-3252,PAYLOAD,2022-04-14 22:00:00,15.08845352,0.000217,53.2133,75.1851,42.948,98.1662,-0.0013482,-0.00021685,0.0,0 STARLINK-3252,1 49733U 21115K   22104.91667824 -.00021685  00000-0 -13482-2 0  9992,2 49733  53.2133  75.1851 0002170  42.9480  98.1662 15.08845352  3601,6917.864000000001,95.437,541.23,538.2280000000002,0.0
49733.0,STARLINK-3252,PAYLOAD,2022-04-15 06:00:00,15.0881958,0.0002394,53.2132,73.6904,40.4862,112.2271,0.0010700999999999,0.00016774,0.0,0 STARLINK-3252,1 49733U 21115K   22105.25001157  .00016774  00000-0  10701-2 0  9993,2 49733  53.2132  73.6904 0002394  40.4862 112.2271 15.08819580 21469,6917.943,95.439,541.464,538.1519999999998,0.0
49733.0,STARLINK-3252,PAYLOAD,2022-04-15 14:00:01,15.0885984,0.0002302,53.2129,72.1928,41.702,122.6017,-0.00092028,-0.00014913,0.0,0 STARLINK-3252,1 49733U 21115K   22105.58334491 -.00014913  00000-0 -92028-3 0  9997,2 49733  53.2129  72.1928 0002302  41.7020 122.6017 15.08859840  3606,6917.82,95.436,541.2769999999998,538.092,0.0
49733.0,STARLINK-3252,PAYLOAD,2022-04-15 22:00:00,15.08852224,0.0002247,53.2133,70.6956,45.7829,130.1166,0.00094613,0.00014807,0.0,0 STARLINK-3252,1 49733U 21115K   22105.91667824  .00014807  00000-0  94613-3 0  9995,2 49733  53.2133  70.6956 0002247  45.7829 130.1166 15.08852224  3589,6917.843000000003,95.437,541.262,538.154,0.0
